OBJECT_NAME,OBJECT_ID,EPOCH,MEAN_MOTION,ECCENTRICITY,INCLINATION,RA_OF_ASC_NODE,ARG_OF_PERICENTER,MEAN_ANOMALY,EPHEMERIS_TYPE,CLASSIFICATION_TYPE,NORAD_CAT_ID,ELEMENT_SET_NO,REV_AT_EPOCH,BSTAR,MEAN_MOTION_DOT,MEAN_MOTION_DDOT
STARLINK-2195,2021-017BC,2026-01-17T14:26:26.543040,15.06412181,.00012174,53.0559,90.9639,77.9610,282.1516,0,U,47772,999,26989,.14521053E-3,.1883E-4,0
STARLINK-2196,2021-017BD,2026-01-17T14:21:06.979680,15.06419151,.00012194,53.0554,90.9789,100.3871,259.7255,0,U,47773,999,26988,.18210314E-4,-.1E-6,0
STARLINK-2209,2021-017BG,2026-01-18T00:00:02.000160,15.17963865,.00004918,53.1019,78.8845,97.8837,258.1785,0,U,47776,999,579,.56802064E-2,.118399E-2,0
STARLINK-2211,2021-017BJ,2026-01-18T00:00:02.000160,15.12135836,.00007028,53.0753,79.0860,46.4928,358.1923,0,U,47778,999,579,.43258793E-2,.75922E-3,0
STARLINK-2213,2021-017BL,2026-01-18T00:00:02.000160,15.18251484,.00003566,53.1017,78.8767,51.5370,329.2372,0,U,47780,999,579,.55952285E-2,.117581E-2,0
STARLINK-2257,2021-018A,2026-01-17T16:19:13.230336,15.06417776,.00012445,53.0563,120.6117,87.5985,272.5147,0,U,47787,999,26890,.15225551E-3,.1988E-4,0
STARLINK-2314,2021-018B,2026-01-18T00:00:02.000160,15.10062274,.0001609,53.0657,94.1509,92.3346,154.6718,0,U,47788,999,579,.34619321E-2,.57152E-3,0
STARLINK-2315,2021-018C,2026-01-17T13:00:11.953728,15.06400399,.00013753,53.0533,101.2296,82.9642,277.1504,0,U,47789,999,26917,-.555234E-5,-.364E-5,0
STARLINK-2319,2021-018D,2026-01-17T23:33:09.081504,15.06388615,.00013635,53.0534,89.2600,89.3842,270.7303,0,U,47790,999,26938,-.2443316E-3,-.3918E-4,0
STARLINK-2322,2021-018E,2026-01-18T00:00:02.000160,15.26520146,.00011859,53.1417,118.3127,92.3707,20.8196,0,U,47791,999,579,.4128444E-1,.1188774E-1,0
STARLINK-2334,2021-018F,2026-01-17T22:44:03.374592,15.06392055,.00012757,53.0536,99.4110,87.8434,272.2701,0,U,47792,999,26923,-.30955474E-4,-.742E-5,0
STARLINK-2338,2021-018G,2026-01-17T11:56:29.997024,15.06402704,.00012069,53.0546,101.4318,84.4051,275.7076,0,U,47793,999,26915,-.3572634E-5,-.335E-5,0
STARLINK-2373,2021-018K,2026-01-17T12:07:07.035456,15.06403862,.00014289,53.0563,101.3976,97.9686,262.1465,0,U,47796,999,26916,-.10003704E-4,-.43E-5,0
STARLINK-2377,2021-018L,2026-01-17T16:10:36.342336,15.06404748,.00012183,53.0557,125.6399,88.9250,271.1878,0,U,47797,999,26883,.74720778E-4,.832E-5,0
STARLINK-2379,2021-018M,2026-01-17T21:56:15.807840,15.06405480,.00011033,53.0546,99.5621,102.2852,257.8260,0,U,47798,999,26922,-.82811812E-4,-.1515E-4,0
STARLINK-2380,2021-018N,2026-01-17T21:50:58.397568,15.06396201,.0001098,53.0554,99.5780,72.5753,287.5356,0,U,47799,999,26921,-.17128968E-3,-.2831E-4,0
STARLINK-2381,2021-018P,2026-01-17T16:00:38.147616,15.06414607,.00012286,53.0551,100.6666,109.8074,250.3048,0,U,47800,999,26918,-.57577993E-4,-.1139E-4,0
STARLINK-2383,2021-018R,2026-01-17T16:21:14.090112,15.06396866,.00013765,53.0555,125.6043,86.3327,273.7820,0,U,47802,999,26884,.33796279E-3,.4756E-4,0
STARLINK-2385,2021-018T,2026-01-17T11:51:11.446272,15.06403389,.00011964,53.0550,101.4481,82.5557,277.5568,0,U,47804,999,26915,.43776078E-4,.371E-5,0
STARLINK-2386,2021-018U,2026-01-17T22:12:14.121216,15.06402093,.00013883,53.0543,99.7545,89.6192,270.4956,0,U,47805,999,26922,-.53906826E-4,-.1084E-4,0
STARLINK-2387,2021-018V,2026-01-17T12:44:56.501664,15.06398304,.00012475,53.0553,116.2906,87.1748,272.9384,0,U,47806,999,26901,-.2482049E-4,-.651E-5,0
STARLINK-2388,2021-018W,2026-01-17T12:29:39.735456,15.06416887,.00010351,53.0543,91.3262,89.4228,270.6880,0,U,47807,999,26929,.17951864E-3,.2395E-4,0
STARLINK-2389,2021-018X,2026-01-17T13:11:27.536928,15.06418792,.00013225,53.0568,116.1956,100.7053,259.4085,0,U,47808,999,26901,-.32271078E-4,-.762E-5,0
STARLINK-2391,2021-018Z,2026-01-17T13:54:36.133632,15.06397975,.00013212,53.0553,131.0644,91.9459,268.1681,0,U,47810,999,26880,-.2296294E-4,-.623E-5,0
STARLINK-2395,2021-018AD,2026-01-18T00:00:02.000160,15.27107359,.00008359,53.1467,118.2491,101.0638,66.5530,0,U,47814,999,574,.26219492E-1,.760968E-2,0
STARLINK-2396,2021-018AE,2026-01-17T13:32:41.204256,15.06412926,.00010467,53.0555,116.1300,83.1978,276.9130,0,U,47815,999,26895,.18882911E-4,0,0
STARLINK-2399,2021-018AF,2026-01-17T23:18:32.456736,15.06407264,.00011491,53.0559,119.3065,92.1815,267.9306,0,U,47816,999,26894,-.29283819E-4,-.718E-5,0
STARLINK-2400,2021-018AG,2026-01-18T00:00:02.000160,15.25077350,.00011315,53.1346,118.4446,77.5375,22.1434,0,U,47817,999,565,.42384256E-1,.1167033E-1,0
STARLINK-2401,2021-018AH,2026-01-17T17:30:18.474336,15.06408696,.00013296,53.0568,125.8554,86.0812,274.0329,0,U,47818,999,26883,-.26700024E-3,-.4257E-4,0
STARLINK-2402,2021-018AJ,2026-01-18T00:00:02.000160,15.25656101,.00010063,53.1389,118.4269,92.0292,357.7878,0,U,47819,999,579,.30339856E-1,.838903E-2,0
STARLINK-2406,2021-018AL,2026-01-18T00:00:02.000160,15.29238172,.00009371,53.1556,118.0958,104.8281,34.4413,0,U,47821,999,579,.19053257E-2,.54831E-3,0
STARLINK-2407,2021-018AM,2026-01-17T16:43:05.707776,15.06391888,.0001311,53.0567,130.5273,89.4419,270.6720,0,U,47822,999,26877,-.22662019E-4,-.619E-5,0
STARLINK-2408,2021-018AN,2026-01-17T23:27:48.093408,15.06401627,.00013054,53.0556,119.2684,89.6313,270.4826,0,U,47823,999,26895,.10022613E-4,-.132E-5,0
STARLINK-2409,2021-018AP,2026-01-17T23:13:14.478816,15.06398077,.00012704,53.0551,119.3207,90.5078,269.6056,0,U,47824,999,26894,-.20851463E-4,-.592E-5,0
STARLINK-2410,2021-018AQ,2026-01-18T00:00:02.000160,15.27583928,.00011527,53.1489,118.2430,90.6056,140.5714,0,U,47825,999,574,.27612875E-1,.817639E-2,0
STARLINK-2411,2021-018AR,2026-01-17T14:01:13.094976,15.06407277,.00012039,53.0552,121.0417,95.0810,265.0316,0,U,47826,999,26889,.14741826E-4,-.62E-6,0
STARLINK-2413,2021-018AS,2026-01-17T12:00:33.776352,15.06372563,.00014674,53.0554,111.6573,100.5382,259.5772,0,U,47827,999,26907,-.20312545E-3,-.3303E-4,0
STARLINK-2415,2021-018AT,2026-01-17T12:03:08.665632,15.06396814,.00012879,53.0553,131.4104,72.8470,287.2660,0,U,47828,999,26874,-.4778931E-5,-.353E-5,0
STARLINK-2419,2021-018AV,2026-01-17T13:59:54.247200,15.06403950,.00011534,53.0559,131.0482,93.4835,266.6286,0,U,47830,999,26874,.87471097E-4,.1022E-4,0
STARLINK-2420,2021-018AW,2026-01-17T17:11:38.573088,15.06406645,.00012567,53.0545,105.4493,92.4340,267.6792,0,U,47831,999,26917,.37451456E-4,.277E-5,0
STARLINK-2422,2021-018AX,2026-01-17T16:08:37.335840,15.06413855,.00013692,53.0547,120.6450,83.3003,276.8142,0,U,47832,999,26890,.68849674E-3,.9992E-4,0
STARLINK-2423,2021-018AY,2026-01-17T16:45:46.820448,15.06396449,.00013716,53.0548,120.5290,87.2393,272.8753,0,U,47833,999,26896,-.36842564E-4,-.83E-5,0
STARLINK-2424,2021-018AZ,2026-01-17T23:23:50.959968,15.06399315,.00010519,53.0544,119.2886,70.1017,290.0085,0,U,47834,999,26900,.88449567E-4,.1036E-4,0
STARLINK-2426,2021-018BB,2026-01-17T14:17:10.260096,15.06405058,.00013475,53.0556,121.0783,94.4589,265.6554,0,U,47836,999,26889,.61289034E-4,.632E-5,0
STARLINK-2427,2021-018BC,2026-01-17T22:28:08.157792,15.06393850,.00012055,53.0554,99.4611,84.1600,275.9526,0,U,47837,999,26923,-.45970885E-4,-.966E-5,0
STARLINK-2429,2021-018BD,2026-01-17T13:13:27.514560,15.06432845,.00011615,53.0550,121.1925,88.2972,271.8150,0,U,47838,999,26888,.53243946E-3,.7665E-4,0
STARLINK-2431,2021-018BE,2026-01-17T21:52:18.062688,15.06398220,.00012079,53.0548,89.5719,88.3696,271.7431,0,U,47839,999,26937,.31434881E-4,.187E-5,0
STARLINK-2432,2021-018BF,2026-01-17T22:06:54.160416,15.06395583,.00008888,53.0547,99.5282,81.3994,278.7095,0,U,47840,999,26922,-.10824827E-3,-.1893E-4,0
STARLINK-2433,2021-018BG,2026-01-17T22:01:35.552640,15.06405245,.00013139,53.0539,99.5442,88.7140,271.3999,0,U,47841,999,26922,.6393515E-5,-.186E-5,0
STARLINK-2435,2021-018BJ,2026-01-17T16:15:55.185120,15.06400645,.00012315,53.0565,125.6214,95.9211,264.1918,0,U,47843,999,26885,.67686724E-4,.727E-5,0
STARLINK-2446,2021-018BK,2026-01-17T16:13:55.547040,15.06407998,.00012758,53.0558,120.6280,90.0947,270.0188,0,U,47844,999,26890,.80764757E-4,.922E-5,0
STARLINK-2453,2021-018BL,2026-01-17T11:53:52.513152,15.06316781,.00024976,53.0555,121.4397,92.8595,267.2680,0,U,47845,999,26888,.11801591E-2,.17301E-3,0
SHIYAN-9 (SY-9),2021-019A,2026-01-17T15:38:25.134720,1.00269333,.00165585,16.8568,304.3891,21.5834,172.5590,0,U,47851,999,2262,0,-.211E-5,0
YAOGAN-31 04A,2021-020A,2026-01-17T22:46:03.531936,13.45433346,.01617211,63.4077,284.0476,359.9391,0.1589,0,U,47854,999,23825,-.1278206E-3,-.172E-5,0
YAOGAN-31 04B,2021-020C,2026-01-17T22:46:19.913376,13.45433374,.01614314,63.4073,284.8424,0.0138,0.0866,0,U,47856,999,23819,-.72311175E-4,-.137E-5,0
YAOGAN-31 04C,2021-020D,2026-01-17T22:46:22.829376,13.45433415,.01615011,63.4083,284.1201,359.8886,0.2078,0,U,47857,999,23824,-.42944541E-4,-.118E-5,0
STARLINK-2280,2021-021B,2026-01-18T00:00:02.000160,15.29294621,.00011715,53.1568,133.0940,129.2530,223.3175,0,U,47861,999,579,.10943386E-2,.31296E-3,0
STARLINK-2291,2021-021C,2026-01-17T23:00:27.401472,15.06944496,.00016082,53.0568,129.3556,159.8953,200.2100,0,U,47862,999,26868,.46425195E-2,.70599E-3,0
STARLINK-2326,2021-021L,2026-01-17T15:18:52.607232,15.06406476,.00007424,53.0545,155.7988,99.3428,260.7645,0,U,47870,999,26818,.16706617E-3,.2209E-4,0
STARLINK-2329,2021-021P,2026-01-17T15:56:40.732512,15.06400432,.00012427,53.0549,130.6831,89.3487,270.7644,0,U,47873,999,26863,.19983447E-4,.16E-6,0
STARLINK-2330,2021-021Q,2026-01-17T11:24:01.190592,15.06403455,.0002187,53.0538,86.5432,71.3232,288.7995,0,U,47874,999,26924,.12310859E-2,.18105E-3,0
STARLINK-2336,2021-021V,2026-01-17T19:12:24.770016,15.06398243,.00009876,53.0559,155.0738,84.6051,275.5051,0,U,47879,999,26848,.33889076E-4,.224E-5,0
STARLINK-2342,2021-021Z,2026-01-18T00:00:02.000160,15.24150186,.00010421,53.1314,143.3309,80.3543,327.4018,0,U,47883,999,579,.17618509E-2,.43341E-3,0
STARLINK-2343,2021-021AA,2026-01-17T15:54:02.077920,15.06397585,.0001203,53.0560,150.6913,84.4395,275.6731,0,U,47884,999,26835,.25902665E-4,.104E-5,0
